{"fetched_at":"2026-07-08T17:59:25.198Z","source":"https://celestrak.org/NORAD/elements/gp.php?GROUP=oneweb&FORMAT=JSON","constellation":"oneweb","records":[{"OBJECT_NAME":"ONEWEB-0656","OBJECT_ID":"2023-029X","EPOCH":"2026-07-08T11:48:33.070752","CLASSIFICATION_TYPE":"U","MEAN_MOTION":13.20769843,"ECCENTRICITY":0.000202,"INCLINATION":87.9192,"RA_OF_ASC_NODE":270.1852,"ARG_OF_PERICENTER":86.7647,"MEAN_ANOMALY":273.3718,"EPHEMERIS_TYPE":0,"NORAD_CAT_ID":55817,"ELEMENT_SET_NO":999,"REV_AT_EPOCH":16396,"BSTAR":0.0001551,"MEAN_MOTION_DOT":7.6e-7,"MEAN_MOTION_DDOT":0},{"OBJECT_NAME":"ONEWEB-0657","OBJECT_ID":"2023-029Y","EPOCH":"2026-07-07T20:19:26.868864","CLASSIFICATION_TYPE":"U","MEAN_MOTION":13.19685404,"ECCENTRICITY":0.0002875,"INCLINATION":87.9149,"RA_OF_ASC_NODE":300.8589,"ARG_OF_PERICENTER":65.6225,"MEAN_ANOMALY":294.5208,"EPHEMERIS_TYPE":0,"NORAD_CAT_ID":55818,"ELEMENT_SET_NO":999,"REV_AT_EPOCH":16163,"BSTAR":-0.010525,"MEAN_MOTION_DOT":-0.00004196,"MEAN_MOTION_DDOT":0},{"OBJECT_NAME":"ONEWEB-0658","OBJECT_ID":"2023-029Z","EPOCH":"2026-07-08T07:07:36.787584","CLASSIFICATION_TYPE":"U","MEAN_MOTION":13.19726096,"ECCENTRICITY":0.0002178,"INCLINATION":87.9194,"RA_OF_ASC_NODE":300.7473,"ARG_OF_PERICENTER":108.2823,"MEAN_ANOMALY":251.8547,"EPHEMERIS_TYPE":0,"NORAD_CAT_ID":55819,"ELEMENT_SET_NO":999,"REV_AT_EPOCH":16170,"BSTAR":-0.00006459,"MEAN_MOTION_DOT":-1.3e-7,"MEAN_MOTION_DDOT":0},{"OBJECT_NAME":"ONEWEB-0660","OBJECT_ID":"2023-029AA","EPOCH":"2026-07-08T12:22:40.527840","CLASSIFICATION_TYPE":"U","MEAN_MOTION":13.14501926,"ECCENTRICITY":0.0001822,"INCLINATION":87.898,"RA_OF_ASC_NODE":285.4503,"ARG_OF_PERICENTER":108.0932,"MEAN_ANOMALY":252.0396,"EPHEMERIS_TYPE":0,"NORAD_CAT_ID":55820,"ELEMENT_SET_NO":999,"REV_AT_EPOCH":16220,"BSTAR":-0.00035716,"MEAN_MOTION_DOT":-0.0000012,"MEAN_MOTION_DDOT":0},{"OBJECT_NAME":"ONEWEB-0661","OBJECT_ID":"2023-029AB","EPOCH":"2026-07-08T05:54:29.655648","CLASSIFICATION_TYPE":"U","MEAN_MOTION":13.14502759,"ECCENTRICITY":0.0001725,"INCLINATION":87.8963,"RA_OF_ASC_NODE":285.5446,"ARG_OF_PERICENTER":104.3423,"MEAN_ANOMALY":255.7898,"EPHEMERIS_TYPE":0,"NORAD_CAT_ID":55821,"ELEMENT_SET_NO":999,"REV_AT_EPOCH":16215,"BSTAR":0.00046926,"MEAN_MOTION_DOT":0.00000187,"MEAN_MOTION_DDOT":0},{"OBJECT_NAME":"ONEWEB-0662","OBJECT_ID":"2023-029AC","EPOCH":"2026-07-08T12:13:33.434400","CLASSIFICATION_TYPE":"U","MEAN_MOTION":13.14502444,"ECCENTRICITY":0.0001838,"INCLINATION":87.8962,"RA_OF_ASC_NODE":285.4978,"ARG_OF_PERICENTER":109.519,"MEAN_ANOMALY":250.6138,"EPHEMERIS_TYPE":0,"NORAD_CAT_ID":55822,"ELEMENT_SET_NO":999,"REV_AT_EPOCH":16223,"BSTAR":0.000033819,"MEAN_MOTION_DOT":2.5e-7,"MEAN_MOTION_DDOT":0},{"OBJECT_NAME":"ONEWEB-0663","OBJECT_ID":"2023-029AD","EPOCH":"2026-07-08T12:34:48.703584","CLASSIFICATION_TYPE":"U","MEAN_MOTION":13.20871206,"ECCENTRICITY":0.000203,"INCLINATION":87.9195,"RA_OF_ASC_NODE":270.2498,"ARG_OF_PERICENTER":110.6337,"MEAN_ANOMALY":249.5014,"EPHEMERIS_TYPE":0,"NORAD_CAT_ID":55823,"ELEMENT_SET_NO":999,"REV_AT_EPOCH":16396,"BSTAR":-0.00010332,"MEAN_MOTION_DOT":-2.9e-7,"MEAN_MOTION_DDOT":0},{"OBJECT_NAME":"ONEWEB-0664","OBJECT_ID":"2023-029AE","EPOCH":"2026-07-08T11:29:11.427072","CLASSIFICATION_TYPE":"U","MEAN_MOTION":13.20771967,"ECCENTRICITY":0.0001585,"INCLINATION":87.918,"RA_OF_ASC_NODE":270.2378,"ARG_OF_PERICENTER":98.5063,"MEAN_ANOMALY":261.625,"EPHEMERIS_TYPE":0,"NORAD_CAT_ID":55824,"ELEMENT_SET_NO":999,"REV_AT_EPOCH":16395,"BSTAR":0.00018711,"MEAN_MOTION_DOT":8.9e-7,"MEAN_MOTION_DDOT":0},{"OBJECT_NAME":"ONEWEB-0665","OBJECT_ID":"2023-029AF","EPOCH":"2026-07-08T05:49:55.488576","CLASSIFICATION_TYPE":"U","MEAN_MOTION":13.14502557,"ECCENTRICITY":0.0001889,"INCLINATION":87.896,"RA_OF_ASC_NODE":285.5262,"ARG_OF_PERICENTER":108.7776,"MEAN_ANOMALY":251.3559,"EPHEMERIS_TYPE":0,"NORAD_CAT_ID":55825,"ELEMENT_SET_NO":999,"REV_AT_EPOCH":16217,"BSTAR":0.00030457,"MEAN_MOTION_DOT":0.00000126,"MEAN_MOTION_DDOT":0},{"OBJECT_NAME":"ONEWEB-0666","OBJECT_ID":"2023-029AG","EPOCH":"2026-07-07T17:08:34.605888","CLASSIFICATION_TYPE":"U","MEAN_MOTION":13.20772498,"ECCENTRICITY":0.0002667,"INCLINATION":87.918,"RA_OF_ASC_NODE":270.3802,"ARG_OF_PERICENTER":89.2241,"MEAN_ANOMALY":270.9198,"EPHEMERIS_TYPE":0,"NORAD_CAT_ID":55826,"ELEMENT_SET_NO":999,"REV_AT_EPOCH":16386,"BSTAR":0.00007651,"MEAN_MOTION_DOT":4.4e-7,"MEAN_MOTION_DDOT":0},{"OBJECT_NAME":"ONEWEB-0667","OBJECT_ID":"2023-029AH","EPOCH":"2026-07-08T11:12:11.924352","CLASSIFICATION_TYPE":"U","MEAN_MOTION":13.20773905,"ECCENTRICITY":0.0001946,"INCLINATION":87.9196,"RA_OF_ASC_NODE":270.1915,"ARG_OF_PERICENTER":101.9161,"MEAN_ANOMALY":258.219,"EPHEMERIS_TYPE":0,"NORAD_CAT_ID":55827,"ELEMENT_SET_NO":999,"REV_AT_EPOCH":16395,"BSTAR":0.0002616,"MEAN_MOTION_DOT":0.00000119,"MEAN_MOTION_DDOT":0},{"OBJECT_NAME":"ONEWEB-0669","OBJECT_ID":"2023-029AJ","EPOCH":"2026-07-08T11:04:55.002144","CLASSIFICATION_TYPE":"U","MEAN_MOTION":13.20773619,"ECCENTRICITY":0.000183,"INCLINATION":87.9187,"RA_OF_ASC_NODE":270.202,"ARG_OF_PERICENTER":84.9395,"MEAN_ANOMALY":275.1947,"EPHEMERIS_TYPE":0,"NORAD_CAT_ID":55828,"ELEMENT_SET_NO":999,"REV_AT_EPOCH":16395,"BSTAR":0.00013004,"MEAN_MOTION_DOT":6.6e-7,"MEAN_MOTION_DDOT":0},{"OBJECT_NAME":"ONEWEB-0670","OBJECT_ID":"2023-029AK","EPOCH":"2026-07-08T05:17:56.910048","CLASSIFICATION_TYPE":"U","MEAN_MOTION":13.14501929,"ECCENTRICITY":0.0001597,"INCLINATION":87.8961,"RA_OF_ASC_NODE":285.5481,"ARG_OF_PERICENTER":102.5319,"MEAN_ANOMALY":257.5989,"EPHEMERIS_TYPE":0,"NORAD_CAT_ID":55829,"ELEMENT_SET_NO":999,"REV_AT_EPOCH":16219,"BSTAR":-0.00043014,"MEAN_MOTION_DOT":-0.00000147,"MEAN_MOTION_DDOT":0},{"OBJECT_NAME":"ONEWEB-0671","OBJECT_ID":"2023-029AL","EPOCH":"2026-07-08T07:00:46.562976","CLASSIFICATION_TYPE":"U","MEAN_MOTION":13.19726415,"ECCENTRICITY":0.0001912,"INCLINATION":87.9187,"RA_OF_ASC_NODE":300.7723,"ARG_OF_PERICENTER":105.5733,"MEAN_ANOMALY":254.5611,"EPHEMERIS_TYPE":0,"NORAD_CAT_ID":55830,"ELEMENT_SET_NO":999,"REV_AT_EPOCH":16168,"BSTAR":0.000023118,"MEAN_MOTION_DOT":2.2e-7,"MEAN_MOTION_DDOT":0},{"OBJECT_NAME":"ONEWEB-0672","OBJECT_ID":"2023-029AM","EPOCH":"2026-07-08T10:57:38.547360","CLASSIFICATION_TYPE":"U","MEAN_MOTION":13.20770741,"ECCENTRICITY":0.0002179,"INCLINATION":87.9189,"RA_OF_ASC_NODE":270.1966,"ARG_OF_PERICENTER":92.2008,"MEAN_ANOMALY":267.9374,"EPHEMERIS_TYPE":0,"NORAD_CAT_ID":55831,"ELEMENT_SET_NO":999,"REV_AT_EPOCH":16395,"BSTAR":0.00025085,"MEAN_MOTION_DOT":0.00000115,"MEAN_MOTION_DDOT":0},{"OBJECT_NAME":"ONEWEB-0673","OBJECT_ID":"2023-029AN","EPOCH":"2026-07-08T06:27:47.310048","CLASSIFICATION_TYPE":"U","MEAN_MOTION":13.19725063,"ECCENTRICITY":0.0001863,"INCLINATION":87.9192,"RA_OF_ASC_NODE":300.77,"ARG_OF_PERICENTER":102.7615,"MEAN_ANOMALY":257.3726,"EPHEMERIS_TYPE":0,"NORAD_CAT_ID":55832,"ELEMENT_SET_NO":999,"REV_AT_EPOCH":16168,"BSTAR":0.00013152,"MEAN_MOTION_DOT":6.6e-7,"MEAN_MOTION_DDOT":0}]}
